IRIDIUM 155             
1 43573U 18061E   25001.05636219  .00001035  00000+0  36262-3 0  9998
2 43573  86.3961 279.0320 0001698  83.6208 276.5181 14.34215563337097
IRIDIUM 154             
1 43574U 18061F   24366.61872846  .00000989  00000+0  34613-3 0  9997
2 43574  86.3969 279.3227 0002198  83.1999 276.9447 14.34221268337079
IRIDIUM 163             
1 43575U 18061G   24366.80900869  .00000426  00000+0  14506-3 0  9991
2 43575  86.3964 279.1754 0001994  81.0444 279.0977 14.34219521337074
IRIDIUM 156             
1 43576U 18061H   24366.78363647  .00000638  00000+0  22070-3 0  9996
2 43576  86.3964 279.1926 0001797  90.4304 269.7097 14.34218975337066
IRIDIUM 164             
1 43577U 18061J   24366.62506707  .00001180  00000+0  41423-3 0  9992
2 43577  86.3966 279.2908 0002316  87.4448 272.7013 14.34223543337084
IRIDIUM 159             
1 43578U 18061K   25001.22127686  .00000775  00000+0  26973-3 0  9993
2 43578  86.3972 278.9893 0002307  84.6266 275.5193 14.34217937337134
IRIDIUM 180             
1 43922U 19002A   24366.87193086  .00000023  00000+0  11084-5 0  9998
2 43922  86.3980 216.0163 0001831  86.1804 273.9601 14.34217820312696
IRIDIUM 176             
1 43923U 19002B   25001.44762390  .00003357  00000+0  52822-3 0  9995
2 43923  86.6093 215.7820 0002752  68.2623 291.8887 14.72255483321014
IRIDIUM 168             
1 43924U 19002C   24366.86558474  .00000755  00000+0  26260-3 0  9997
2 43924  86.3981 216.0814 0002082  84.6077 275.5356 14.34213179312672
IRIDIUM 173             
1 43925U 19002D   25001.34128233  .00000099  00000+0  28431-4 0  9998
2 43925  86.3974 215.7935 0001903  86.4284 273.7130 14.34217077312734
IRIDIUM 169             
1 43926U 19002E   24366.38547620  .00001058  00000+0  33935-3 0  9991
2 43926  86.4222 247.8025 0000835  30.0125 330.1121 14.38613378313625
IRIDIUM 172             
1 43927U 19002F   24366.98609600  .00000521  00000+0  17911-3 0  9995
2 43927  86.3974 215.9481 0002029  84.7214 275.4213 14.34219355312684
IRIDIUM 175             
1 43928U 19002G   24366.42277623  .00001209  00000+0  18774-3 0  9993
2 43928  86.1524 178.2669 0001320 135.4854 224.6468 14.72260587320851
IRIDIUM 171             
1 43929U 19002H   25001.52521897  .00000005  00000+0 -53440-5 0  9992
2 43929  86.3986 215.9700 0002024  98.8191 261.3234 14.34217512312756
IRIDIUM 170             
1 43930U 19002J   24366.84210714  .00003341  00000+0  52577-3 0  9998
2 43930  86.6098 216.0406 0002366  79.8137 280.3347 14.72255648320937
IRIDIUM 167             
1 43931U 19002K   25001.10026415  .00000898  00000+0  31362-3 0  9991
2 43931  86.3974 215.9181 0001760  98.8592 261.2803 14.34217884312696
IRIDIUM 181             
1 56726U 23068S   25001.21381443  .00001459  00000+0  42515-3 0  9997
2 56726  86.6868 278.6381 0002440  92.7491 267.3990 14.43581628 85705
IRIDIUM 177             
1 56727U 23068T   25001.02753677  .00004493  00000+0  58762-3 0  9991
2 56727  86.1969 221.4113 0001974  85.7115 274.4332 14.80236620 87642
IRIDIUM 174             
1 56728U 23068U   24366.54888973  .00004234  00000+0  55376-3 0  9991
2 56728  86.1976 221.7574 0002300  90.3648 269.7836 14.80217215 87579
IRIDIUM 178             
1 56729U 23068V   25001.42228764  .00003571  00000+0  46624-3 0  9991
2 56729  86.5772 248.1847 0002716  88.6938 271.4595 14.80248379 87709
IRIDIUM 179             
1 56730U 23068W   25001.41685689  .00004275  00000+0  55911-3 0  9996
2 56730  86.6785 254.8171 0002422  78.7794 281.3700 14.80231834 87700
